     3.02           N: GNSS NAV DATA    E: GALILEO          RINEX VERSION / TYPE
Spider v7.5.1.8670  SMO                 20251027 030347 UTC PGM / RUN BY / DATE
GAL    1.4150D+02 -3.1250D-01  1.4954D-03  0.0000D+00       IONOSPHERIC CORR
GAUT -9.3132257462D-10 8.881784197D-16  86400 2390          TIME SYSTEM CORR
GPGA -2.5320332497D-09 4.884981308D-15  86400 2390          TIME SYSTEM CORR
    18    18  2185     7                                    LEAP SECONDS
                                                            END OF HEADER
E19 2025 10 27 02 40 00 2.385684521869D-03 3.809930149146D-11 0.000000000000D+00
     3.300000000000D+01-6.575000000000D+01 2.826189060556D-09-5.301839501639D-01
    -2.926215529442D-06 3.457872662693D-05 8.085742592812D-06 5.440619861603D+03
     9.600000000000D+04-5.587935447693D-08 1.280774202964D+00-1.117587089539D-08
     9.710607234112D-01 1.747500000000D+02 1.566536021153D+00-5.233432279175D-09
     3.796586656168D-10 5.170000000000D+02 2.390000000000D+03 0.000000000000D+00
     3.120000000000D+00 0.000000000000D+00-6.286427378654D-09-6.286427378654D-09
     9.666400000000D+04
E26 2025 10 27 02 40 00 1.160006504506D-04 1.087130385713D-11 0.000000000000D+00
     3.300000000000D+01 2.168750000000D+01 2.892977635227D-09-5.440530499247D-01
     1.089647412300D-06 3.850477514789D-04 4.861503839493D-07 5.440603551865D+03
     9.600000000000D+04 4.284083843231D-08-8.129082603434D-01-6.332993507385D-08
     9.922745350516D-01 3.431250000000D+02-1.899588418831D+00-5.782740874369D-09
    -8.500353892993D-11 5.170000000000D+02 2.390000000000D+03 0.000000000000D+00
     3.120000000000D+00 0.000000000000D+00-7.683411240578D-09-8.149072527885D-09
     9.666400000000D+04
E29 2025 10 27 02 40 00-1.449989504181D-04-3.467448550509D-12 0.000000000000D+00
     3.300000000000D+01-7.659375000000D+01 3.013339799907D-09-4.118612399710D-01
    -3.553926944733D-06 3.598479088396D-04 8.419156074524D-06 5.440612356186D+03
     9.600000000000D+04 4.097819328308D-08 1.274702749149D+00-1.490116119385D-08
     9.589867089829D-01 1.617812500000D+02 2.170870859039D+00-5.390224524487D-09
     3.800158243639D-10 5.170000000000D+02 2.390000000000D+03 0.000000000000D+00
     3.120000000000D+00 0.000000000000D+00-4.656612873077D-09-4.190951585770D-09
     9.666400000000D+04
E21 2025 10 27 02 40 00-6.980941398069D-04-2.373212737439D-12 0.000000000000D+00
     3.300000000000D+01 5.015625000000D+01 3.115844027235D-09-4.488003354783D-01
     2.384185791016D-06 8.793734014034D-05 9.147450327873D-06 5.440615734100D+03
     9.600000000000D+04 3.539025783539D-08-2.908405987012D+00-1.676380634308D-08
     9.629872340208D-01 1.478125000000D+02 1.111877354155D-01-5.317721504446D-09
    -3.192990039036D-10 5.170000000000D+02 2.390000000000D+03 0.000000000000D+00
     3.120000000000D+00 0.000000000000D+00 4.656612873077D-10 6.984919309616D-10
     9.666400000000D+04
E27 2025 10 27 02 40 00-8.081968990155D-04-1.044497821567D-11 0.000000000000D+00
     3.300000000000D+01 6.106250000000D+01 3.084771327266D-09 5.570654121933D-01
     2.672895789146D-06 2.371972659603D-04 9.262934327126D-06 5.440617527008D+03
     9.600000000000D+04 2.980232238770D-08-2.908440432881D+00-2.607703208923D-08
     9.629587158957D-01 1.464062500000D+02-9.589772234220D-02-5.321650239522D-09
    -3.185846864096D-10 5.170000000000D+02 2.390000000000D+03 0.000000000000D+00
     3.120000000000D+00 0.000000000000D+00 4.656612873077D-10 6.984919309616D-10
     9.666400000000D+04
E10 2025 10 27 02 40 00-7.465819944628D-04-2.600586412882D-12 0.000000000000D+00
     3.300000000000D+01 1.240625000000D+01 2.717255975782D-09-1.631505449219D+00
     5.681067705154D-07 2.439687959850D-04 1.013278961182D-06 5.440602083206D+03
     9.600000000000D+04-5.215406417847D-08-8.125571131910D-01 5.587935447693D-08
     9.988007735242D-01 3.349375000000D+02-2.759311288025D+00-5.571660653459D-09
    -4.678766402089D-11 2.580000000000D+02 2.390000000000D+03 0.000000000000D+00
     3.120000000000D+00 0.000000000000D+00-2.793967723846D-09 0.000000000000D+00
     9.670000000000D+04
E26 2025 10 27 02 40 00 1.160009414889D-04 1.087130385713D-11 0.000000000000D+00
     3.300000000000D+01 2.168750000000D+01 2.892977635227D-09-5.440530499247D-01
     1.089647412300D-06 3.850477514789D-04 4.861503839493D-07 5.440603551865D+03
     9.600000000000D+04 4.284083843231D-08-8.129082603434D-01-6.332993507385D-08
     9.922745350516D-01 3.431250000000D+02-1.899588418831D+00-5.782740874369D-09
    -8.500353892993D-11 2.580000000000D+02 2.390000000000D+03 0.000000000000D+00
     3.120000000000D+00 0.000000000000D+00-7.683411240578D-09 0.000000000000D+00
     9.670000000000D+04
E21 2025 10 27 02 40 00-6.980944890529D-04-2.373212737439D-12 0.000000000000D+00
     3.300000000000D+01 5.015625000000D+01 3.115844027235D-09-4.488003354783D-01
     2.384185791016D-06 8.793734014034D-05 9.147450327873D-06 5.440615734100D+03
     9.600000000000D+04 3.539025783539D-08-2.908405987012D+00-1.676380634308D-08
     9.629872340208D-01 1.478125000000D+02 1.111877354155D-01-5.317721504446D-09
    -3.192990039036D-10 2.580000000000D+02 2.390000000000D+03 0.000000000000D+00
     3.120000000000D+00 0.000000000000D+00 4.656612873077D-10 0.000000000000D+00
     9.670000000000D+04
E29 2025 10 27 02 40 00-1.449997071177D-04-3.467448550509D-12 0.000000000000D+00
     3.300000000000D+01-7.659375000000D+01 3.013339799907D-09-4.118612399710D-01
    -3.553926944733D-06 3.598479088396D-04 8.419156074524D-06 5.440612356186D+03
     9.600000000000D+04 4.097819328308D-08 1.274702749149D+00-1.490116119385D-08
     9.589867089829D-01 1.617812500000D+02 2.170870859039D+00-5.390224524487D-09
     3.800158243639D-10 2.580000000000D+02 2.390000000000D+03 0.000000000000D+00
     3.120000000000D+00 0.000000000000D+00-4.656612873077D-09 0.000000000000D+00
     9.670000000000D+04
E27 2025 10 27 02 40 00-8.081974810921D-04-1.045918907039D-11 0.000000000000D+00
     3.300000000000D+01 6.106250000000D+01 3.084771327266D-09 5.570654121933D-01
     2.672895789146D-06 2.371972659603D-04 9.262934327126D-06 5.440617527008D+03
     9.600000000000D+04 2.980232238770D-08-2.908440432881D+00-2.607703208923D-08
     9.629587158957D-01 1.464062500000D+02-9.589772234220D-02-5.321650239522D-09
    -3.185846864096D-10 2.580000000000D+02 2.390000000000D+03 0.000000000000D+00
     3.120000000000D+00 0.000000000000D+00 4.656612873077D-10 0.000000000000D+00
     9.670000000000D+04
E19 2025 10 27 02 40 00 2.385683998000D-03 3.807087978203D-11 0.000000000000D+00
     3.300000000000D+01-6.575000000000D+01 2.826189060556D-09-5.301839501639D-01
    -2.926215529442D-06 3.457872662693D-05 8.085742592812D-06 5.440619861603D+03
     9.600000000000D+04-5.587935447693D-08 1.280774202964D+00-1.117587089539D-08
     9.710607234112D-01 1.747500000000D+02 1.566536021153D+00-5.233432279175D-09
     3.796586656168D-10 2.580000000000D+02 2.390000000000D+03 0.000000000000D+00
     3.120000000000D+00 0.000000000000D+00-6.286427378654D-09 0.000000000000D+00
     9.670000000000D+04
